{
  "type": "FeatureCollection",
  "features": [
    {
      "type": "Feature",
      "properties": {
        "norad_id": 66559,
        "name": "STARLINK-35419",
        "group": "last-30-days",
        "lat": -5.699553950017681,
        "lon": 100.83979667778158,
        "alt_km": 414.3713680106266,
        "timestamp": "2025-12-15T04:01:19.179576+00:00",
        "meta_object_name": "STARLINK-35419",
        "meta_object_id": "2025-268C",
        "meta_epoch": "2025-12-14T01:46:45.280416",
        "meta_mean_motion": 15.5058629,
        "meta_eccentricity": 0.0002097,
        "meta_inclination": 42.9995,
        "meta_ra_of_asc_node": 113.3872,
        "meta_arg_of_pericenter": 266.2883,
        "meta_mean_anomaly": 93.7738,
        "meta_ephemeris_type": 0,
        "meta_classification_type": "U",
        "meta_norad_cat_id": 66559,
        "meta_element_set_no": 999,
        "meta_rev_at_epoch": 483,
        "meta_bstar": 0.0022108214,
        "meta_mean_motion_dot": 0.00131596,
        "meta_mean_motion_ddot": 0,
        "tle_line1": "1 66559U 25268C   25348.07413519  .00131596  00000+0  22108-2 0  9995",
        "tle_line2": "2 66559  42.9995 113.3872 0002097 266.2883  93.7738 15.50586290  4832"
      },
      "geometry": {
        "type": "Point",
        "coordinates": [
          100.83979667778158,
          -5.699553950017681
        ]
      }
    },
    {
      "type": "Feature",
      "properties": {
        "norad_id": 66560,
        "name": "STARLINK-35411",
        "group": "last-30-days",
        "lat": -4.571600468647738,
        "lon": 102.06258837884013,
        "alt_km": 414.47094063170425,
        "timestamp": "2025-12-15T04:01:19.179586+00:00",
        "meta_object_name": "STARLINK-35411",
        "meta_object_id": "2025-268D",
        "meta_epoch": "2025-12-14T01:46:15.370464",
        "meta_mean_motion": 15.5056456,
        "meta_eccentricity": 0.00018763,
        "meta_inclination": 42.9996,
        "meta_ra_of_asc_node": 113.3853,
        "meta_arg_of_pericenter": 274.4813,
        "meta_mean_anomaly": 85.5833,
        "meta_ephemeris_type": 0,
        "meta_classification_type": "U",
        "meta_norad_cat_id": 66560,
        "meta_element_set_no": 999,
        "meta_rev_at_epoch": 483,
        "meta_bstar": 0.0014804679,
        "meta_mean_motion_dot": 0.00087442,
        "meta_mean_motion_ddot": 0,
        "tle_line1": "1 66560U 25268D   25348.07378901  .00087442  00000+0  14805-2 0  9997",
        "tle_line2": "2 66560  42.9996 113.3853 0001876 274.4813  85.5833 15.50564560  4833"
      },
      "geometry": {
        "type": "Point",
        "coordinates": [
          102.06258837884013,
          -4.571600468647738
        ]
      }
    },
    {
      "type": "Feature",
      "properties": {
        "norad_id": 66561,
        "name": "STARLINK-35305",
        "group": "last-30-days",
        "lat": -1.8342142535132977,
        "lon": 105.00374008636409,
        "alt_km": 414.18251851566947,
        "timestamp": "2025-12-15T04:01:19.179596+00:00",
        "meta_object_name": "STARLINK-35305",
        "meta_object_id": "2025-268E",
        "meta_epoch": "2025-12-14T01:45:16.679808",
        "meta_mean_motion": 15.50577223,
        "meta_eccentricity": 0.00010117,
        "meta_inclination": 42.9991,
        "meta_ra_of_asc_node": 113.378,
        "meta_arg_of_pericenter": 263.8473,
        "meta_mean_anomaly": 96.2271,
        "meta_ephemeris_type": 0,
        "meta_classification_type": "U",
        "meta_norad_cat_id": 66561,
        "meta_element_set_no": 999,
        "meta_rev_at_epoch": 483,
        "meta_bstar": 0.0021671346,
        "meta_mean_motion_dot": 0.00128899,
        "meta_mean_motion_ddot": 0,
        "tle_line1": "1 66561U 25268E   25348.07310972  .00128899  00000+0  21671-2 0  9993",
        "tle_line2": "2 66561  42.9991 113.3780 0001011 263.8473  96.2271 15.50577223  4838"
      },
      "geometry": {
        "type": "Point",
        "coordinates": [
          105.00374008636409,
          -1.8342142535132977
        ]
      }
    },
    {
      "type": "Feature",
      "properties": {
        "norad_id": 66562,
        "name": "STARLINK-35579",
        "group": "last-30-days",
        "lat": -3.0510549680699133,
        "lon": 103.69889061115786,
        "alt_km": 413.7158774385398,
        "timestamp": "2025-12-15T04:01:19.179608+00:00",
        "meta_object_name": "STARLINK-35579",
        "meta_object_id": "2025-268F",
        "meta_epoch": "2025-12-14T01:45:45.886464",
        "meta_mean_motion": 15.50587495,
        "meta_eccentricity": 0.00023012,
        "meta_inclination": 42.9997,
        "meta_ra_of_asc_node": 113.381,
        "meta_arg_of_pericenter": 279.1651,
        "meta_mean_anomaly": 80.8949,
        "meta_ephemeris_type": 0,
        "meta_classification_type": "U",
        "meta_norad_cat_id": 66562,
        "meta_element_set_no": 999,
        "meta_rev_at_epoch": 483,
        "meta_bstar": 0.0024162498,
        "meta_mean_motion_dot": 0.00144095,
        "meta_mean_motion_ddot": 0,
        "tle_line1": "1 66562U 25268F   25348.07344776  .00144095  00000+0  24162-2 0  9997",
        "tle_line2": "2 66562  42.9997 113.3810 0002301 279.1651  80.8949 15.50587495  4833"
      },
      "geometry": {
        "type": "Point",
        "coordinates": [
          103.69889061115786,
          -3.0510549680699133
        ]
      }
    },
    {
      "type": "Feature",
      "properties": {
        "norad_id": 66563,
        "name": "STARLINK-35437",
        "group": "last-30-days",
        "lat": -0.5181252969384587,
        "lon": 106.41202673559503,
        "alt_km": 413.9648761731396,
        "timestamp": "2025-12-15T04:01:19.179620+00:00",
        "meta_object_name": "STARLINK-35437",
        "meta_object_id": "2025-268G",
        "meta_epoch": "2025-12-14T01:44:47.151744",
        "meta_mean_motion": 15.50576271,
        "meta_eccentricity": 8.549e-05,
        "meta_inclination": 42.9992,
        "meta_ra_of_asc_node": 113.3749,
        "meta_arg_of_pericenter": 268.479,
        "meta_mean_anomaly": 91.5972,
        "meta_ephemeris_type": 0,
        "meta_classification_type": "U",
        "meta_norad_cat_id": 66563,
        "meta_element_set_no": 999,
        "meta_rev_at_epoch": 483,
        "meta_bstar": 0.0022627282,
        "meta_mean_motion_dot": 0.00134696,
        "meta_mean_motion_ddot": 0,
        "tle_line1": "1 66563U 25268G   25348.07276796  .00134696  00000+0  22627-2 0  9994",
        "tle_line2": "2 66563  42.9992 113.3749 0000854 268.4790  91.5972 15.50576271  4831"
      },
      "geometry": {
        "type": "Point",
        "coordinates": [
          106.41202673559503,
          -0.5181252969384587
        ]
      }
    },
    {
      "type": "Feature",
      "properties": {
        "norad_id": 66564,
        "name": "STARLINK-35358",
        "group": "last-30-days",
        "lat": 0.8543371842493687,
        "lon": 107.88020833077587,
        "alt_km": 413.64595408858077,
        "timestamp": "2025-12-15T04:01:19.179630+00:00",
        "meta_object_name": "STARLINK-35358",
        "meta_object_id": "2025-268H",
        "meta_epoch": "2025-12-14T01:44:17.239200",
        "meta_mean_motion": 15.50586781,
        "meta_eccentricity": 0.00013439,
        "meta_inclination": 42.999,
        "meta_ra_of_asc_node": 113.3723,
        "meta_arg_of_pericenter": 271.6128,
        "meta_mean_anomaly": 88.4578,
        "meta_ephemeris_type": 0,
        "meta_classification_type": "U",
        "meta_norad_cat_id": 66564,
        "meta_element_set_no": 999,
        "meta_rev_at_epoch": 483,
        "meta_bstar": 0.0024037033,
        "meta_mean_motion_dot": 0.00143323,
        "meta_mean_motion_ddot": 0,
        "tle_line1": "1 66564U 25268H   25348.07242175  .00143323  00000+0  24037-2 0  9993",
        "tle_line2": "2 66564  42.9990 113.3723 0001343 271.6128  88.4578 15.50586781  4831"
      },
      "geometry": {
        "type": "Point",
        "coordinates": [
          107.88020833077587,
          0.8543371842493687
        ]
      }
    },
    {
      "type": "Feature",
      "properties": {
        "norad_id": 66565,
        "name": "STARLINK-35893",
        "group": "last-30-days",
        "lat": 2.0298300506211104,
        "lon": 109.13883363925525,
        "alt_km": 413.60056196113874,
        "timestamp": "2025-12-15T04:01:19.179640+00:00",
        "meta_object_name": "STARLINK-35893",
        "meta_object_id": "2025-268J",
        "meta_epoch": "2025-12-14T01:43:47.566848",
        "meta_mean_motion": 15.50570727,
        "meta_eccentricity": 0.00014078,
        "meta_inclination": 42.9998,
        "meta_ra_of_asc_node": 113.3696,
        "meta_arg_of_pericenter": 281.3662,
        "meta_mean_anomaly": 78.704,
        "meta_ephemeris_type": 0,
        "meta_classification_type": "U",
        "meta_norad_cat_id": 66565,
        "meta_element_set_no": 999,
        "meta_rev_at_epoch": 483,
        "meta_bstar": 0.0018912957,
        "meta_mean_motion_dot": 0.00112182,
        "meta_mean_motion_ddot": 0,
        "tle_line1": "1 66565U 25268J   25348.07207832  .00112182  00000+0  18913-2 0  9990",
        "tle_line2": "2 66565  42.9998 113.3696 0001407 281.3662  78.7040 15.50570727  4830"
      },
      "geometry": {
        "type": "Point",
        "coordinates": [
          109.13883363925525,
          2.0298300506211104
        ]
      }
    }
  ]
}